{
  "links" : {
    "next" : "https://api.nasa.gov/neo/rest/v1/neo/browse?page=39&size=20&api_key=jqAGvNAwUIBu4fl9FSOjdm3V4F7hIglRzI6pdX9d",
    "prev" : "https://api.nasa.gov/neo/rest/v1/neo/browse?page=37&size=20&api_key=jqAGvNAwUIBu4fl9FSOjdm3V4F7hIglRzI6pdX9d",
    "self" : "https://api.nasa.gov/neo/rest/v1/neo/browse?page=38&size=20&api_key=jqAGvNAwUIBu4fl9FSOjdm3V4F7hIglRzI6pdX9d"
  },
  "page" : {
    "size" : 20,
    "total_elements" : 20750,
    "total_pages" : 1038,
    "number" : 38
  },
  "near_earth_objects" : [ {
    "links" : {
      "self" : "https://api.nasa.gov/neo/rest/v1/neo/3776291?api_key=jqAGvNAwUIBu4fl9FSOjdm3V4F7hIglRzI6pdX9d"
    },
    "neo_reference_id" : "3776291",
    "name" : "(2017 MZ8)",
    "designation" : "2017 MZ8",
    "nasa_jpl_url" : "http://ssd.jpl.nasa.gov/sbdb.cgi?sstr=3776291",
    "absolute_magnitude_h" : 22.136,
    "estimated_diameter" : {
      "kilometers" : {
        "estimated_diameter_min" : 0.0993928117,
        "estimated_diameter_max" : 0.2222490835
      },
      "meters" : {
        "estimated_diameter_min" : 99.3928117403,
        "estimated_diameter_max" : 222.2490835263
      },
      "miles" : {
        "estimated_diameter_min" : 0.0617598108,
        "estimated_diameter_max" : 0.1380991353
      },
      "feet" : {
        "estimated_diameter_min" : 326.0919124702,
        "estimated_diameter_max" : 729.1636831963
      }
    },
    "is_potentially_hazardous_asteroid" : false,
    "close_approach_data" : [ ],
    "orbital_data" : {
      "orbit_id" : "3",
      "orbit_determination_date" : "2017-07-03 06:20:21",
      "first_observation_date" : "2017-06-22",
      "last_observation_date" : "2017-06-23",
      "data_arc_in_days" : 1,
      "observations_used" : 7,
      "orbit_uncertainty" : "9",
      "minimum_orbit_intersection" : ".0398873",
      "jupiter_tisserand_invariant" : "3.135",
      "epoch_osculation" : "2457927.5",
      "eccentricity" : ".6492191047020195",
      "semi_major_axis" : "2.495720243736828",
      "inclination" : "4.611830003059438",
      "ascending_node_longitude" : "17.06023430644954",
      "orbital_period" : "1440.098770185791",
      "perihelion_distance" : ".8754509815112986",
      "perihelion_argument" : "345.4269027041557",
      "aphelion_distance" : "4.115989505962357",
      "perihelion_time" : "2457995.493818363117",
      "mean_anomaly" : "343.0027112601699",
      "mean_motion" : ".2499828535743805",
      "equinox" : "J2000",
      "orbit_class" : {
        "orbit_class_type" : "APO",
        "orbit_class_range" : "a (semi-major axis) > 1.0 AU; q (perihelion) < 1.017 AU",
        "orbit_class_description" : "Near-Earth asteroid orbits which cross the Earth’s orbit similar to that of 1862 Apollo"
      }
    },
    "is_sentry_object" : true,
    "sentry_data" : "https://api.nasa.gov/neo/rest/v1/neo/sentry/3776291?api_key=jqAGvNAwUIBu4fl9FSOjdm3V4F7hIglRzI6pdX9d"
  }, {
    "links" : {
      "self" : "https://api.nasa.gov/neo/rest/v1/neo/3778623?api_key=jqAGvNAwUIBu4fl9FSOjdm3V4F7hIglRzI6pdX9d"
    },
    "neo_reference_id" : "3778623",
    "name" : "(2017 OW18)",
    "designation" : "2017 OW18",
    "nasa_jpl_url" : "http://ssd.jpl.nasa.gov/sbdb.cgi?sstr=3778623",
    "absolute_magnitude_h" : 24.7,
    "estimated_diameter" : {
      "kilometers" : {
        "estimated_diameter_min" : 0.0305179233,
        "estimated_diameter_max" : 0.0682401509
      },
      "meters" : {
        "estimated_diameter_min" : 30.5179232594,
        "estimated_diameter_max" : 68.2401509401
      },
      "miles" : {
        "estimated_diameter_min" : 0.0189629525,
        "estimated_diameter_max" : 0.0424024508
      },
      "feet" : {
        "estimated_diameter_min" : 100.1244233463,
        "estimated_diameter_max" : 223.8850168104
      }
    },
    "is_potentially_hazardous_asteroid" : false,
    "close_approach_data" : [ {
      "close_approach_date" : "1906-06-11",
      "epoch_date_close_approach" : -2005747200000,
      "relative_velocity" : {
        "kilometers_per_second" : "18.5015732279",
        "kilometers_per_hour" : "66605.663620566",
        "miles_per_hour" : "41386.1691535678"
      },
      "miss_distance" : {
        "astronomical" : "0.4305885366",
        "lunar" : "167.4989471436",
        "kilometers" : "64415128",
        "miles" : "40025704"
      },
      "orbiting_body" : "Earth"
    }, {
      "close_approach_date" : "1908-06-18",
      "epoch_date_close_approach" : -1941984000000,
      "relative_velocity" : {
        "kilometers_per_second" : "4.6069563669",
        "kilometers_per_hour" : "16585.0429207761",
        "miles_per_hour" : "10305.3006970789"
      },
      "miss_distance" : {
        "astronomical" : "1.8751343843",
        "lunar" : "729.4272460938",
        "kilometers" : "280516096",
        "miles" : "174304624"
      },
      "orbiting_body" : "Juptr"
    }, {
      "close_approach_date" : "2017-07-23",
      "epoch_date_close_approach" : 1500793200000,
      "relative_velocity" : {
        "kilometers_per_second" : "6.6438502989",
        "kilometers_per_hour" : "23917.8610759305",
        "miles_per_hour" : "14861.6287335414"
      },
      "miss_distance" : {
        "astronomical" : "0.0962637887",
        "lunar" : "37.4466133118",
        "kilometers" : "14400858",
        "miles" : "8948278"
      },
      "orbiting_body" : "Earth"
    } ],
    "orbital_data" : {
      "orbit_id" : "6",
      "orbit_determination_date" : "2017-08-28 06:19:27",
      "first_observation_date" : "2017-07-27",
      "last_observation_date" : "2017-08-25",
      "data_arc_in_days" : 29,
      "observations_used" : 26,
      "orbit_uncertainty" : "7",
      "minimum_orbit_intersection" : ".0893788",
      "jupiter_tisserand_invariant" : "3.177",
      "epoch_osculation" : "2458600.5",
      "eccentricity" : ".571058715698317",
      "semi_major_axis" : "2.570193069448647",
      "inclination" : "2.573475643173256",
      "ascending_node_longitude" : "282.0450174859004",
      "orbital_period" : "1505.036557547825",
      "perihelion_distance" : "1.102461916112587",
      "perihelion_argument" : "27.0236461186464",
      "aphelion_distance" : "4.037924222784707",
      "perihelion_time" : "2457964.642760728510",
      "mean_anomaly" : "152.0950471201179",
      "mean_motion" : ".2391968475413996",
      "equinox" : "J2000",
      "orbit_class" : {
        "orbit_class_type" : "AMO",
        "orbit_class_range" : "1.017 AU < q (perihelion) < 1.3 AU",
        "orbit_class_description" : "Near-Earth asteroid orbits similar to that of 1221 Amor"
      }
    },
    "is_sentry_object" : false
  }, {
    "links" : {
      "self" : "https://api.nasa.gov/neo/rest/v1/neo/3778655?api_key=jqAGvNAwUIBu4fl9FSOjdm3V4F7hIglRzI6pdX9d"
    },
    "neo_reference_id" : "3778655",
    "name" : "(2017 OL19)",
    "designation" : "2017 OL19",
    "nasa_jpl_url" : "http://ssd.jpl.nasa.gov/sbdb.cgi?sstr=3778655",
    "absolute_magnitude_h" : 23.6,
    "estimated_diameter" : {
      "kilometers" : {
        "estimated_diameter_min" : 0.0506471459,
        "estimated_diameter_max" : 0.1132504611
      },
      "meters" : {
        "estimated_diameter_min" : 50.6471458835,
        "estimated_diameter_max" : 113.2504610618
      },
      "miles" : {
        "estimated_diameter_min" : 0.0314706677,
        "estimated_diameter_max" : 0.0703705522
      },
      "feet" : {
        "estimated_diameter_min" : 166.1651821003,
        "estimated_diameter_max" : 371.5566426699
      }
    },
    "is_potentially_hazardous_asteroid" : false,
    "close_approach_data" : [ {
      "close_approach_date" : "2017-07-12",
      "epoch_date_close_approach" : 1499842800000,
      "relative_velocity" : {
        "kilometers_per_second" : "11.9840576684",
        "kilometers_per_hour" : "43142.6076060978",
        "miles_per_hour" : "26807.1385983556"
      },
      "miss_distance" : {
        "astronomical" : "0.0222647992",
        "lunar" : "8.6610069275",
        "kilometers" : "3330766.5",
        "miles" : "2069642.375"
      },
      "orbiting_body" : "Earth"
    } ],
    "orbital_data" : {
      "orbit_id" : "3",
      "orbit_determination_date" : "2017-08-09 06:17:19",
      "first_observation_date" : "2017-07-26",
      "last_observation_date" : "2017-07-30",
      "data_arc_in_days" : 4,
      "observations_used" : 16,
      "orbit_uncertainty" : "8",
      "minimum_orbit_intersection" : ".0020076",
      "jupiter_tisserand_invariant" : "5.329",
      "epoch_osculation" : "2457962.5",
      "eccentricity" : ".1303087098603552",
      "semi_major_axis" : "1.166433075945473",
      "inclination" : "22.37877157656206",
      "ascending_node_longitude" : "288.7298849339998",
      "orbital_period" : "460.1380696151535",
      "perihelion_distance" : "1.014436686680573",
      "perihelion_argument" : "4.03529976405988",
      "aphelion_distance" : "1.318429465210374",
      "perihelion_time" : "2457950.822274050257",
      "mean_anomaly" : "9.136347586765796",
      "mean_motion" : ".7823738650903062",
      "equinox" : "J2000",
      "orbit_class" : {
        "orbit_class_type" : "APO",
        "orbit_class_range" : "a (semi-major axis) > 1.0 AU; q (perihelion) < 1.017 AU",
        "orbit_class_description" : "Near-Earth asteroid orbits which cross the Earth’s orbit similar to that of 1862 Apollo"
      }
    },
    "is_sentry_object" : false
  } ]
}